TIANMU-1 07             
1 57399U 23101A   26065.57454230  .00008352  00000+0  29795-3 0  9991
2 57399  97.2728 118.5929 0004609 142.4105 217.7458 15.29118809145964
STARLINK-34854          
1 65337U 25189Q   26068.65690868  .00030196  00000+0  10272-2 0  9991
2 65337  53.1582 206.7591 0001229  92.5483 267.5658 15.30209757 31041
